OBJECT_NAME,OBJECT_ID,EPOCH,MEAN_MOTION,ECCENTRICITY,INCLINATION,RA_OF_ASC_NODE,ARG_OF_PERICENTER,MEAN_ANOMALY,EPHEMERIS_TYPE,CLASSIFICATION_TYPE,NORAD_CAT_ID,ELEMENT_SET_NO,REV_AT_EPOCH,BSTAR,MEAN_MOTION_DOT,MEAN_MOTION_DDOT
ONEWEB-0012,2019-010A,2026-07-16T03:10:05.306304,13.16593889,.00016445,87.9077,223.0353,94.6878,265.4441,0,U,44057,999,35537,.58461006E-4,.35E-6,0
ONEWEB-0010,2019-010B,2026-07-16T11:04:20.149248,13.16594153,.00023093,87.9079,222.9660,99.8948,260.2444,0,U,44058,999,35546,.78847604E-4,.43E-6,0
ONEWEB-0008,2019-010C,2026-07-16T11:40:48.516960,13.16593669,.00021728,87.9079,222.9562,86.1983,273.9396,0,U,44059,999,35558,-.15824771E-3,-.48E-6,0
ONEWEB-0007,2019-010D,2026-07-16T14:54:24.866496,13.15548413,.00019657,87.8985,253.3564,105.6722,254.4625,0,U,44060,999,35524,.25454813E-4,.22E-6,0
ONEWEB-0006,2019-010E,2026-07-16T04:02:57.349248,13.15551374,.00022662,87.8996,253.4135,97.4148,262.7240,0,U,44061,999,35523,-.80627828E-4,-.18E-6,0
ONEWEB-0011,2019-010F,2026-07-16T14:14:27.661344,13.15549431,.00022704,87.8994,253.3393,95.7842,264.3547,0,U,44062,999,35528,.21624074E-3,.94E-6,0
ONEWEB-0013,2020-008A,2026-07-16T12:16:58.706976,13.09454966,.00009197,87.8487,46.9043,65.2417,294.8806,0,U,45131,999,30990,.51593555E-3,.19E-5,0
ONEWEB-0017,2020-008B,2026-07-16T13:12:09.588672,13.10372173,.00020246,87.8809,30.4162,92.4332,267.7027,0,U,45132,999,31179,-.69142304E-3,-.229E-5,0
ONEWEB-0020,2020-008C,2026-07-16T12:28:11.109792,13.10373987,.00018292,87.8823,30.4219,87.5264,272.6073,0,U,45133,999,31218,.17060043E-2,.608E-5,0
ONEWEB-0021,2020-008D,2026-07-16T12:50:09.874464,13.10370027,.00017564,87.8812,30.4332,91.3513,268.7815,0,U,45134,999,31249,.1419809E-2,.508E-5,0
ONEWEB-0023,2020-008F,2026-07-16T11:16:05.087712,13.10368435,.00017993,87.8816,30.4303,82.7461,277.3870,0,U,45136,999,31191,-.12395074E-3,-.31E-6,0
ONEWEB-0024,2020-008G,2026-07-16T12:25:55.678656,13.10373904,.00018537,87.8829,30.4143,89.8561,270.2779,0,U,45137,999,31208,.15078436E-2,.539E-5,0
ONEWEB-0025,2020-008H,2026-07-16T12:25:32.017152,13.10374497,.00022091,87.8829,30.4042,79.4190,280.7186,0,U,45138,999,31241,.15137052E-2,.541E-5,0
ONEWEB-0026,2020-008J,2026-07-16T10:57:23.455008,13.11418707,.00019887,87.8885,15.2392,91.6045,268.5310,0,U,45139,999,31494,-.79452177E-3,-.269E-5,0
ONEWEB-0028,2020-008K,2026-07-16T12:11:51.821952,13.11414704,.00012848,87.8877,15.2358,86.3008,273.8267,0,U,45140,999,31246,-.57995058E-3,-.193E-5,0
ONEWEB-0032,2020-008L,2026-07-16T11:24:50.725440,13.10370901,.00014419,87.8814,30.4330,78.5211,281.6078,0,U,45141,999,31213,-.97205134E-3,-.327E-5,0
ONEWEB-0033,2020-008M,2026-07-16T01:38:13.693920,13.10371710,.00022762,87.8811,30.5202,95.8629,264.2757,0,U,45142,999,31199,.18817688E-2,.67E-5,0
ONEWEB-0035,2020-008N,2026-07-16T11:17:30.462144,13.10373540,.00018322,87.8809,30.4334,90.9262,269.2075,0,U,45143,999,31177,-.30808325E-3,-.95E-6,0
ONEWEB-0036,2020-008P,2026-07-16T10:45:23.924448,13.10374263,.00017283,87.8831,30.4554,82.3175,277.8149,0,U,45144,999,31219,.18039353E-2,.642E-5,0
ONEWEB-0038,2020-008Q,2026-07-16T11:12:14.971680,13.11418806,.00020813,87.8901,15.2499,141.1085,219.0193,0,U,45145,999,31416,.21434991E-3,.89E-6,0
ONEWEB-0039,2020-008R,2026-07-16T12:42:50.881248,13.10371375,.00013222,87.8816,30.4193,83.2058,276.9219,0,U,45146,999,31200,.18303146E-2,.652E-5,0
ONEWEB-0040,2020-008S,2026-07-16T12:33:03.678336,13.10372916,.00018437,87.8816,30.4311,77.7741,282.3593,0,U,45147,999,31170,.185996E-2,.662E-5,0
ONEWEB-0043,2020-008U,2026-07-16T10:45:45.153792,13.10375699,.00013358,87.8821,30.4352,80.5037,279.6241,0,U,45149,999,31201,.19439465E-2,.691E-5,0
ONEWEB-0044,2020-008V,2026-07-16T13:17:02.457888,13.10373121,.00017298,87.8821,30.4161,85.7941,274.3384,0,U,45150,999,31232,-.97547724E-3,-.328E-5,0
ONEWEB-0045,2020-008W,2026-07-16T11:04:43.197312,13.11418846,.00017209,87.8893,15.2320,91.2166,268.9160,0,U,45151,999,31424,-.50358518E-3,-.166E-5,0
ONEWEB-0047,2020-008X,2026-07-16T11:17:06.369504,13.10369231,.00019145,87.8820,30.4318,94.6112,265.5234,0,U,45152,999,31203,-.29208519E-3,-.89E-6,0
ONEWEB-0048,2020-008Y,2026-07-16T02:00:13.319136,13.10370734,.00017239,87.8811,30.5275,92.9100,267.2225,0,U,45153,999,31159,.4414393E-3,.167E-5,0
ONEWEB-0049,2020-008Z,2026-07-16T13:04:36.628896,13.10369156,.00018827,87.8809,30.4247,76.5264,283.6073,0,U,45154,999,31187,.11078067E-3,.51E-6,0
ONEWEB-0051,2020-008AA,2026-07-16T11:02:16.636128,13.11419663,.00018407,87.8887,15.2380,89.6328,270.5011,0,U,45155,999,31492,-.71793224E-3,-.242E-5,0
ONEWEB-0052,2020-008AB,2026-07-16T11:44:23.188128,13.10375064,.00017411,87.8822,30.4239,76.3451,283.7870,0,U,45156,999,31177,-.18193839E-2,-.622E-5,0
