ONEWEB-0012             
1 44057U 19010A   26197.13200586  .00000035  00000+0  58461-4 0  9996
2 44057  87.9077 223.0353 0001644  94.6878 265.4441 13.16593889355377
ONEWEB-0010             
1 44058U 19010B   26197.46134432  .00000043  00000+0  78848-4 0  9999
2 44058  87.9079 222.9660 0002309  99.8948 260.2444 13.16594153355464
ONEWEB-0008             
1 44059U 19010C   26197.48667265 -.00000048  00000+0 -15825-3 0  9999
2 44059  87.9079 222.9562 0002172  86.1983 273.9396 13.16593669355583
ONEWEB-0007             
1 44060U 19010D   26197.62112114  .00000022  00000+0  25455-4 0  9996
2 44060  87.8985 253.3564 0001965 105.6722 254.4625 13.15548413355245
ONEWEB-0006             
1 44061U 19010E   26197.16871932 -.00000018  00000+0 -80628-4 0  9996
2 44061  87.8996 253.4135 0002266  97.4148 262.7240 13.15551374355232
ONEWEB-0011             
1 44062U 19010F   26197.59337571  .00000094  00000+0  21624-3 0  9992
2 44062  87.8994 253.3393 0002270  95.7842 264.3547 13.15549431355287
ONEWEB-0013             
1 45131U 20008A   26197.51179059  .00000190  00000+0  51594-3 0  9992
2 45131  87.8487  46.9043 0000919  65.2417 294.8806 13.09454966309903
ONEWEB-0017             
1 45132U 20008B   26197.55011098 -.00000229  00000+0 -69142-3 0  9998
2 45132  87.8809  30.4162 0002024  92.4332 267.7027 13.10372173311794
ONEWEB-0020             
1 45133U 20008C   26197.51957303  .00000608  00000+0  17060-2 0  9993
2 45133  87.8823  30.4219 0001829  87.5264 272.6073 13.10373987312189
ONEWEB-0021             
1 45134U 20008D   26197.53483651  .00000508  00000+0  14198-2 0  9994
2 45134  87.8812  30.4332 0001756  91.3513 268.7815 13.10370027312499
ONEWEB-0023             
1 45136U 20008F   26197.46950333 -.00000031  00000+0 -12395-3 0  9995
2 45136  87.8816  30.4303 0001799  82.7461 277.3870 13.10368435311919
ONEWEB-0024             
1 45137U 20008G   26197.51800554  .00000539  00000+0  15078-2 0  9992
2 45137  87.8829  30.4143 0001853  89.8561 270.2779 13.10373904312082
ONEWEB-0025             
1 45138U 20008H   26197.51773168  .00000541  00000+0  15137-2 0  9992
2 45138  87.8829  30.4042 0002209  79.4190 280.7186 13.10374497312413
ONEWEB-0026             
1 45139U 20008J   26197.45652147 -.00000269  00000+0 -79452-3 0  9999
2 45139  87.8885  15.2392 0001988  91.6045 268.5310 13.11418707314940
ONEWEB-0028             
1 45140U 20008K   26197.50823868 -.00000193  00000+0 -57995-3 0  9991
2 45140  87.8877  15.2358 0001284  86.3008 273.8267 13.11414704312462
ONEWEB-0032             
1 45141U 20008L   26197.47558710 -.00000327  00000+0 -97205-3 0  9996
2 45141  87.8814  30.4330 0001441  78.5211 281.6078 13.10370901312137
ONEWEB-0033             
1 45142U 20008M   26197.06821405  .00000670  00000+0  18818-2 0  9997
2 45142  87.8811  30.5202 0002276  95.8629 264.2757 13.10371710311999
ONEWEB-0035             
1 45143U 20008N   26197.47049146 -.00000095  00000+0 -30808-3 0  9994
2 45143  87.8809  30.4334 0001832  90.9262 269.2075 13.10373540311775
ONEWEB-0036             
1 45144U 20008P   26197.44819357  .00000642  00000+0  18039-2 0  9998
2 45144  87.8831  30.4554 0001728  82.3175 277.8149 13.10374263312194
ONEWEB-0038             
1 45145U 20008Q   26197.46683995  .00000089  00000+0  21435-3 0  9998
2 45145  87.8901  15.2499 0002081 141.1085 219.0193 13.11418806314168
ONEWEB-0039             
1 45146U 20008R   26197.52975557  .00000652  00000+0  18303-2 0  9999
2 45146  87.8816  30.4193 0001322  83.2058 276.9219 13.10371375312007
ONEWEB-0040             
1 45147U 20008S   26197.52295924  .00000662  00000+0  18600-2 0  9994
2 45147  87.8816  30.4311 0001843  77.7741 282.3593 13.10372916311709
ONEWEB-0043             
1 45149U 20008U   26197.44843928  .00000691  00000+0  19439-2 0  9993
2 45149  87.8821  30.4352 0001335  80.5037 279.6241 13.10375699312013
ONEWEB-0044             
1 45150U 20008V   26197.55350067 -.00000328  00000+0 -97548-3 0  9991
2 45150  87.8821  30.4161 0001729  85.7941 274.3384 13.10373121312323
ONEWEB-0045             
1 45151U 20008W   26197.46161108 -.00000166  00000+0 -50359-3 0  9997
2 45151  87.8893  15.2320 0001720  91.2166 268.9160 13.11418846314242
ONEWEB-0047             
1 45152U 20008X   26197.47021261 -.00000089  00000+0 -29209-3 0  9998
2 45152  87.8820  30.4318 0001914  94.6112 265.5234 13.10369231312034
ONEWEB-0048             
1 45153U 20008Y   26197.08348749  .00000167  00000+0  44144-3 0  9999
2 45153  87.8811  30.5275 0001723  92.9100 267.2225 13.10370734311593
ONEWEB-0049             
1 45154U 20008Z   26197.54486839  .00000051  00000+0  11078-3 0  9996
2 45154  87.8809  30.4247 0001882  76.5264 283.6073 13.10369156311874
ONEWEB-0051             
1 45155U 20008AA  26197.45991477 -.00000242  00000+0 -71793-3 0  9990
2 45155  87.8887  15.2380 0001840  89.6328 270.5011 13.11419663314926
ONEWEB-0052             
1 45156U 20008AB  26197.48915727 -.00000622  00000+0 -18194-2 0  9995
2 45156  87.8822  30.4239 0001741  76.3451 283.7870 13.10375064311772
